NORAD_CAT_ID,OBJECT_NAME,OBJECT_TYPE,EPOCH,MEAN_MOTION,ECCENTRICITY,INCLINATION,RA_OF_ASC_NODE,ARG_OF_PERICENTER,MEAN_ANOMALY,BSTAR,MEAN_MOTION_DOT,MEAN_MOTION_DDOT,TLE_LINE0,TLE_LINE1,TLE_LINE2,SEMIMAJOR_AXIS,PERIOD,APOGEE,PERIGEE,DECAYED
52882.0,STARLINK-4181,PAYLOAD,2023-08-21 10:43:35,15.08838939,0.0001281,53.2159,234.6809,93.371,266.7429,4.8808e-05,4.89e-06,0.0,0 STARLINK-4181,1 52882U 22062BE  23233.44694251  .00000489  00000-0  48808-4 0  9998,2 52882  53.2159 234.6809 0001281  93.3710 266.7429 15.08838939 65976,6917.884,95.438,540.635,538.862,0.0
52882.0,STARLINK-4181,PAYLOAD,2023-08-22 12:09:45,15.08843342,0.0001271,53.2157,229.9228,92.7859,267.3278,8.7757e-05,1.109e-05,0.0,0 STARLINK-4181,1 52882U 22062BE  23234.50678016  .00001109  00000-0  87757-4 0  9993,2 52882  53.2157 229.9228 0001271  92.7859 267.3278 15.08843342 66134,6917.87,95.437,540.614,538.856,0.0
52882.0,STARLINK-4181,PAYLOAD,2023-08-23 08:49:47,15.08839829,0.0001303,53.2154,226.0568,90.9174,269.1968,5.8051e-05,6.36e-06,0.0,0 STARLINK-4181,1 52882U 22062BE  23235.36790510  .00000636  00000-0  58051-4 0  9991,2 52882  53.2154 226.0568 0001303  90.9174 269.1968 15.08839829 66267,6917.881,95.438,540.647,538.845,0.0
52882.0,STARLINK-4181,PAYLOAD,2023-08-24 10:15:56,15.08846903,0.0001518,53.2173,221.2967,86.5307,273.5859,7.8787e-05,9.66e-06,0.0,0 STARLINK-4181,1 52882U 22062BE  23236.42773999  .00000966  00000-0  78787-4 0  9995,2 52882  53.2173 221.2967 0001518  86.5307 273.5859 15.08846903 66422,6917.859,95.437,540.774,538.674,0.0
52882.0,STARLINK-4181,PAYLOAD,2023-08-24 22:59:02,15.0883744,0.0001542,53.2149,218.9196,95.0808,265.036,5.1672e-05,5.34e-06,0.0,0 STARLINK-4181,1 52882U 22062BE  23236.95766613  .00000534  00000-0  51672-4 0  9993,2 52882  53.2149 218.9196 0001542  95.0808 265.0360 15.08837440 66014,6917.888,95.438,540.82,538.686,0.0
52882.0,STARLINK-4181,PAYLOAD,2023-08-25 10:06:43,15.08843095,0.0001504,53.2162,216.8376,98.1487,261.9675,8.601e-05,1.081e-05,0.0,0 STARLINK-4181,1 52882U 22062BE  23237.42134147  .00001081  00000-0  86010-4 0  9999,2 52882  53.2162 216.8376 0001504  98.1487 261.9675 15.08843095 66085,6917.871,95.437,540.776,538.695,0.0
52882.0,STARLINK-4181,PAYLOAD,2023-08-26 08:22:08,15.08841467,0.000146,53.2168,212.6748,101.5083,258.6073,5.835e-06,-1.95e-06,0.0,0 STARLINK-4181,1 52882U 22062BE  23238.34870518 -.00000195  00000-0  58350-5 0  9993,2 52882  53.2168 212.6748 0001460 101.5083 258.6073 15.08841467 66716,6917.876,95.437,540.751,538.731,0.0
52882.0,STARLINK-4181,PAYLOAD,2023-08-27 08:12:54,15.08845087,0.0001389,53.2171,208.2154,100.149,259.9659,9.1414e-05,1.167e-05,0.0,0 STARLINK-4181,1 52882U 22062BE  23239.34230119  .00001167  00000-0  91414-4 0  9997,2 52882  53.2171 208.2154 0001389 100.1490 259.9659 15.08845087 66377,6917.865,95.437,540.691,538.769,0.0
52882.0,STARLINK-4181,PAYLOAD,2023-08-27 20:56:00,15.08833128,0.0001461,53.2168,205.8395,92.2992,267.8167,4.1797e-05,3.77e-06,0.0,0 STARLINK-4181,1 52882U 22062BE  23239.87223133  .00000377  00000-0  41797-4 0  9994,2 52882  53.2168 205.8395 0001461  92.2992 267.8167 15.08833128 66456,6917.901,95.438,540.777,538.756,0.0
52882.0,STARLINK-4181,PAYLOAD,2023-08-28 01:42:10,15.08830752,0.0001502,53.2176,204.9458,97.7743,262.342,-4.6625e-06,-3.62e-06,0.0,0 STARLINK-4181,1 52882U 22062BE  23240.07095505 -.00000362  00000-0 -46625-5 0  9990,2 52882  53.2176 204.9458 0001502  97.7743 262.3420 15.08830752 66974,6917.909,95.438,540.813,538.735,0.0
52882.0,STARLINK-4181,PAYLOAD,2023-08-28 14:25:15,15.08836484,0.0001504,53.2173,202.5664,90.4512,269.6652,-5.7713e-06,-3.8e-06,0.0,0 STARLINK-4181,1 52882U 22062BE  23240.60087306 -.00000380  00000-0 -57713-5 0  9999,2 52882  53.2173 202.5664 0001504  90.4512 269.6652 15.08836484 66560,6917.891,95.438,540.797,538.716,0.0
52882.0,STARLINK-4181,PAYLOAD,2023-08-29 01:32:56,15.08844397,0.0001421,53.2171,200.4846,94.7896,265.3259,2.6683e-05,1.37e-06,0.0,0 STARLINK-4181,1 52882U 22062BE  23241.06454747  .00000137  00000-0  26683-4 0  9996,2 52882  53.2171 200.4846 0001421  94.7896 265.3259 15.08844397 67128,6917.867,95.437,540.715,538.749,0.0
52882.0,STARLINK-4181,PAYLOAD,2023-08-29 06:19:05,15.08847854,0.000145,53.2172,199.5927,95.6547,264.461,5.7428e-05,6.26e-06,0.0,0 STARLINK-4181,1 52882U 22062BE  23241.26326383  .00000626  00000-0  57428-4 0  9996,2 52882  53.2172 199.5927 0001450  95.6547 264.4610 15.08847854 66662,6917.856,95.437,540.724,538.718,0.0
52882.0,STARLINK-4181,PAYLOAD,2023-08-30 01:23:44,15.08830043,0.0001536,53.2167,196.0234,83.6209,276.4958,-6.2175e-06,-3.87e-06,0.0,0 STARLINK-4181,1 52882U 22062BE  23242.05815966 -.00000387  00000-0 -62175-5 0  9996,2 52882  53.2167 196.0234 0001536  83.6209 276.4958 15.08830043 67274,6917.911,95.438,540.838,538.713,0.0
52882.0,STARLINK-4181,PAYLOAD,2023-08-30 14:06:49,15.08834765,0.0001531,53.2172,193.6467,87.4465,272.6702,3.1613e-05,2.15e-06,0.0,0 STARLINK-4181,1 52882U 22062BE  23242.58807752  .00000215  00000-0  31613-4 0  9998,2 52882  53.2172 193.6467 0001531  87.4465 272.6702 15.08834765 66866,6917.896,95.438,540.821,538.702,0.0
52882.0,STARLINK-4181,PAYLOAD,2023-08-31 02:49:54,15.08839047,0.0001463,53.2172,191.2676,89.4903,270.6257,2.2788e-05,7.5e-07,0.0,0 STARLINK-4181,1 52882U 22062BE  23243.11799569  .00000075  00000-0  22788-4 0  9991,2 52882  53.2172 191.2676 0001463  89.4903 270.6257 15.08839047 67430,6917.883,95.438,540.76,538.736,0.0
52882.0,STARLINK-4181,PAYLOAD,2023-08-31 06:00:40,15.08846535,0.0001457,53.2168,190.6724,90.1974,269.9185,2.6373e-05,1.32e-06,0.0,0 STARLINK-4181,1 52882U 22062BE  23243.25047062  .00000132  00000-0  26373-4 0  9998,2 52882  53.2168 190.6724 0001457  90.1974 269.9185 15.08846535 67455,6917.86,95.437,540.733,538.717,0.0
52882.0,STARLINK-4181,PAYLOAD,2023-09-01 02:40:41,15.08837506,0.000168,53.2155,186.8061,85.1633,274.9551,9.6272e-05,1.244e-05,0.0,0 STARLINK-4181,1 52882U 22062BE  23244.11159594  .00001244  00000-0  96272-4 0  9998,2 52882  53.2155 186.8061 0001680  85.1633 274.9551 15.08837506 67581,6917.888,95.438,540.915,538.591,0.0
52882.0,STARLINK-4181,PAYLOAD,2023-09-01 13:48:24,15.08835698,0.0001483,53.215,184.7247,94.9381,265.178,3.1876e-05,2.19e-06,0.0,0 STARLINK-4181,1 52882U 22062BE  23244.57527950  .00000219  00000-0  31876-4 0  9993,2 52882  53.2150 184.7247 0001483  94.9381 265.1780 15.08835698 67168,6917.894,95.438,540.784,538.733,0.0
52882.0,STARLINK-4181,PAYLOAD,2023-09-01 23:20:43,15.08823573,0.0001212,53.2142,182.9395,97.9251,262.1879,0.00013699,1.892e-05,0.0,0 STARLINK-4181,1 52882U 22062BE  23244.97272483  .00001892  00000-0  13699-3 0  9995,2 52882  53.2142 182.9395 0001212  97.9251 262.1879 15.08823573 67718,6917.931,95.439,540.634,538.957,0.0
52882.0,STARLINK-4181,PAYLOAD,2023-09-02 05:42:16,15.08832809,0.0001896,53.2142,181.7492,96.7619,263.3589,-1.2964e-05,-4.94e-06,0.0,0 STARLINK-4181,1 52882U 22062BE  23245.23768573 -.00000494  00000-0 -12964-4 0  9999,2 52882  53.2142 181.7492 0001896  96.7619 263.3589 15.08832809 67269,6917.902,95.438,541.079,538.456,0.0
52882.0,STARLINK-4181,PAYLOAD,2023-09-02 20:00:43,15.08842387,0.0001583,53.2172,179.0734,103.2909,256.826,7.9287e-05,9.74e-06,0.0,0 STARLINK-4181,1 52882U 22062BE  23245.83383661  .00000974  00000-0  79287-4 0  9998,2 52882  53.2172 179.0734 0001583 103.2909 256.8260 15.08842387 67355,6917.873,95.437,540.833,538.643,0.0
52882.0,STARLINK-4181,PAYLOAD,2023-09-03 02:22:15,15.08851785,0.0001477,53.2159,177.8839,93.506,266.6101,0.00013017,1.785e-05,0.0,0 STARLINK-4181,1 52882U 22062BE  23246.09878874  .00001785  00000-0  13017-3 0  9991,2 52882  53.2159 177.8839 0001477  93.5060 266.6101 15.08851785 67886,6917.844,95.437,540.731,538.688,0.0
52882.0,STARLINK-4181,PAYLOAD,2023-09-04 02:13:03,15.08832082,0.0001493,53.2163,173.4242,95.5276,264.5887,5.2389e-05,5.46e-06,0.0,0 STARLINK-4181,1 52882U 22062BE  23247.09240650  .00000546  00000-0  52389-4 0  9997,2 52882  53.2163 173.4242 0001493  95.5276 264.5887 15.08832082 68035,6917.905,95.438,540.802,538.737,0.0
52882.0,STARLINK-4181,PAYLOAD,2023-09-04 11:45:22,15.08836615,0.0001508,53.2168,171.6399,96.7043,263.4121,1.1684e-05,-1.02e-06,0.0,0 STARLINK-4181,1 52882U 22062BE  23247.48984618 -.00000102  00000-0  11684-4 0  9991,2 52882  53.2168 171.6399 0001508  96.7043 263.4121 15.08836615 67602,6917.891,95.438,540.799,538.713,0.0
52882.0,STARLINK-4181,PAYLOAD,2023-09-05 02:03:50,15.08849946,0.0001358,53.2167,168.9639,90.2859,269.8289,3.033e-05,1.95e-06,0.0,0 STARLINK-4181,1 52882U 22062BE  23248.08599703  .00000195  00000-0  30330-4 0  9995,2 52882  53.2167 168.9639 0001358  90.2859 269.8289 15.08849946 68184,6917.85,95.437,540.654,538.776,0.0
52882.0,STARLINK-4181,PAYLOAD,2023-09-06 03:30:00,15.08842827,0.0001352,53.2167,164.206,83.7931,276.3215,0.00014455,2.014e-05,0.0,0 STARLINK-4181,1 52882U 22062BE  23249.14583930  .00002014  00000-0  14455-3 0  9999,2 52882  53.2167 164.2060 0001352  83.7931 276.3215 15.08842827 68344,6917.872,95.437,540.672,538.801,0.0
52882.0,STARLINK-4181,PAYLOAD,2023-09-07 03:20:46,15.08853882,0.0001408,53.2167,159.7457,89.5334,270.5819,9.1559e-05,1.17e-05,0.0,0 STARLINK-4181,1 52882U 22062BE  23250.13943219  .00001170  00000-0  91559-4 0  9993,2 52882  53.2167 159.7457 0001408  89.5334 270.5819 15.08853882 68008,6917.838,95.437,540.677,538.729,0.0
52882.0,STARLINK-4181,PAYLOAD,2023-09-07 17:39:16,15.08841652,0.000273,53.213,157.0699,75.9333,284.1962,2.1217e-05,4.9e-07,0.0,0 STARLINK-4181,1 52882U 22062BE  23250.73560630  .00000049  00000-0  21217-4 0  9999,2 52882  53.2130 157.0699 0002730  75.9333 284.1962 15.08841652 68589,6917.875,95.437,541.629,537.852,0.0
52882.0,STARLINK-4181,PAYLOAD,2023-09-07 20:50:02,15.08838364,0.0002404,53.2156,156.4714,85.1815,274.9452,-1.1856e-05,-4.77e-06,0.0,0 STARLINK-4181,1 52882U 22062BE  23250.86808848 -.00000477  00000-0 -11856-4 0  9994,2 52882  53.2156 156.4714 0002404  85.1815 274.9452 15.08838364 68110,6917.885,95.438,541.413,538.087,0.0
